[{"OBJECT_NAME":"LACUNASAT-4D","OBJECT_ID":"2025-276DW","EPOCH":"2026-03-09T17:30:33.252192","MEAN_MOTION":14.98548204,"ECCENTRICITY":0.00108499,"INCLINATION":97.5312,"RA_OF_ASC_NODE":142.8344,"ARG_OF_PERICENTER":115.0636,"MEAN_ANOMALY":245.1714,"EPHEMERIS_TYPE":0,"CLASSIFICATION_TYPE":"U","NORAD_CAT_ID":66781,"ELEMENT_SET_NO":999,"REV_AT_EPOCH":772,"BSTAR":0.00086123106,"MEAN_MOTION_DOT":0.00010278,"MEAN_MOTION_DDOT":0},{"OBJECT_NAME":"FENGYUN 1C DEB","OBJECT_ID":"1999-025EEQ","EPOCH":"2026-03-04T07:32:44.635200","MEAN_MOTION":14.50858155,"ECCENTRICITY":0.02656951,"INCLINATION":98.9728,"RA_OF_ASC_NODE":96.1117,"ARG_OF_PERICENTER":260.4903,"MEAN_ANOMALY":96.6174,"EPHEMERIS_TYPE":0,"CLASSIFICATION_TYPE":"U","NORAD_CAT_ID":37056,"ELEMENT_SET_NO":999,"REV_AT_EPOCH":66594,"BSTAR":0.00041717467,"MEAN_MOTION_DOT":2.532e-5,"MEAN_MOTION_DDOT":0}]
